{
  "type": "FeatureCollection",
  "features": [
    {
      "type": "Feature",
      "properties": {
        "norad_id": 66962,
        "name": "STARLINK-35874",
        "group": "last-30-days",
        "lat": -19.572573801360793,
        "lon": -79.9060684874692,
        "alt_km": 401.2468966283286,
        "timestamp": "2025-12-27T11:23:18.581019+00:00",
        "meta_object_name": "STARLINK-35874",
        "meta_object_id": "2025-288D",
        "meta_epoch": "2025-12-27T04:00:01.998720",
        "meta_mean_motion": 15.57179592,
        "meta_eccentricity": 0.0001461,
        "meta_inclination": 43,
        "meta_ra_of_asc_node": 79.4813,
        "meta_arg_of_pericenter": 266.8362,
        "meta_mean_anomaly": 15.566,
        "meta_ephemeris_type": 0,
        "meta_classification_type": "U",
        "meta_norad_cat_id": 66962,
        "meta_element_set_no": 999,
        "meta_rev_at_epoch": 414,
        "meta_bstar": -0.030481,
        "meta_mean_motion_dot": -0.02033404,
        "meta_mean_motion_ddot": 0,
        "tle_line1": "1 66962U 25288D   25361.16668980 -.02033404  00000+0 -30481-1 0  9999",
        "tle_line2": "2 66962  43.0000  79.4813 0001461 266.8362  15.5660 15.57179592  4148"
      },
      "geometry": {
        "type": "Point",
        "coordinates": [
          -79.9060684874692,
          -19.572573801360793
        ]
      }
    },
    {
      "type": "Feature",
      "properties": {
        "norad_id": 66963,
        "name": "STARLINK-36133",
        "group": "last-30-days",
        "lat": -20.775985586173775,
        "lon": -78.315619497926,
        "alt_km": 401.2574847174228,
        "timestamp": "2025-12-27T11:23:18.581029+00:00",
        "meta_object_name": "STARLINK-36133",
        "meta_object_id": "2025-288E",
        "meta_epoch": "2025-12-27T04:00:01.998720",
        "meta_mean_motion": 15.57187609,
        "meta_eccentricity": 0.0001446,
        "meta_inclination": 42.9998,
        "meta_ra_of_asc_node": 79.4764,
        "meta_arg_of_pericenter": 262.895,
        "meta_mean_anomaly": 21.4252,
        "meta_ephemeris_type": 0,
        "meta_classification_type": "U",
        "meta_norad_cat_id": 66963,
        "meta_element_set_no": 999,
        "meta_rev_at_epoch": 414,
        "meta_bstar": -0.030707,
        "meta_mean_motion_dot": -0.02047399,
        "meta_mean_motion_ddot": 0,
        "tle_line1": "1 66963U 25288E   25361.16668980 -.02047399  00000+0 -30707-1 0  9999",
        "tle_line2": "2 66963  42.9998  79.4764 0001446 262.8950  21.4252 15.57187609  4141"
      },
      "geometry": {
        "type": "Point",
        "coordinates": [
          -78.315619497926,
          -20.775985586173775
        ]
      }
    },
    {
      "type": "Feature",
      "properties": {
        "norad_id": 66964,
        "name": "STARLINK-36104",
        "group": "last-30-days",
        "lat": -21.960330546558527,
        "lon": -76.70611117947976,
        "alt_km": 401.36823236660894,
        "timestamp": "2025-12-27T11:23:18.581040+00:00",
        "meta_object_name": "STARLINK-36104",
        "meta_object_id": "2025-288F",
        "meta_epoch": "2025-12-27T04:00:01.998720",
        "meta_mean_motion": 15.57184422,
        "meta_eccentricity": 0.0001445,
        "meta_inclination": 43.0001,
        "meta_ra_of_asc_node": 79.4712,
        "meta_arg_of_pericenter": 265.4057,
        "meta_mean_anomaly": 20.8315,
        "meta_ephemeris_type": 0,
        "meta_classification_type": "U",
        "meta_norad_cat_id": 66964,
        "meta_element_set_no": 999,
        "meta_rev_at_epoch": 414,
        "meta_bstar": -0.03062,
        "meta_mean_motion_dot": -0.02042004,
        "meta_mean_motion_ddot": 0,
        "tle_line1": "1 66964U 25288F   25361.16668980 -.02042004  00000+0 -30620-1 0  9992",
        "tle_line2": "2 66964  43.0001  79.4712 0001445 265.4057  20.8315 15.57184422  4141"
      },
      "geometry": {
        "type": "Point",
        "coordinates": [
          -76.70611117947976,
          -21.960330546558527
        ]
      }
    },
    {
      "type": "Feature",
      "properties": {
        "norad_id": 66965,
        "name": "STARLINK-36067",
        "group": "last-30-days",
        "lat": -23.13011972738175,
        "lon": -75.06584788169239,
        "alt_km": 401.52944060545906,
        "timestamp": "2025-12-27T11:23:18.581050+00:00",
        "meta_object_name": "STARLINK-36067",
        "meta_object_id": "2025-288G",
        "meta_epoch": "2025-12-27T04:00:01.998720",
        "meta_mean_motion": 15.57186318,
        "meta_eccentricity": 0.0001298,
        "meta_inclination": 42.9999,
        "meta_ra_of_asc_node": 79.4672,
        "meta_arg_of_pericenter": 267.1295,
        "meta_mean_anomaly": 21.025,
        "meta_ephemeris_type": 0,
        "meta_classification_type": "U",
        "meta_norad_cat_id": 66965,
        "meta_element_set_no": 999,
        "meta_rev_at_epoch": 414,
        "meta_bstar": -0.030716,
        "meta_mean_motion_dot": -0.02047728,
        "meta_mean_motion_ddot": 0,
        "tle_line1": "1 66965U 25288G   25361.16668980 -.02047728  00000+0 -30716-1 0  9997",
        "tle_line2": "2 66965  42.9999  79.4672 0001298 267.1295  21.0250 15.57186318  4147"
      },
      "geometry": {
        "type": "Point",
        "coordinates": [
          -75.06584788169239,
          -23.13011972738175
        ]
      }
    },
    {
      "type": "Feature",
      "properties": {
        "norad_id": 66966,
        "name": "STARLINK-36139",
        "group": "last-30-days",
        "lat": -24.28069908961421,
        "lon": -73.40102073800139,
        "alt_km": 401.5144052921096,
        "timestamp": "2025-12-27T11:23:18.581060+00:00",
        "meta_object_name": "STARLINK-36139",
        "meta_object_id": "2025-288H",
        "meta_epoch": "2025-12-27T04:00:01.998720",
        "meta_mean_motion": 15.57186152,
        "meta_eccentricity": 0.0001524,
        "meta_inclination": 42.9999,
        "meta_ra_of_asc_node": 79.462,
        "meta_arg_of_pericenter": 268.2701,
        "meta_mean_anomaly": 21.8015,
        "meta_ephemeris_type": 0,
        "meta_classification_type": "U",
        "meta_norad_cat_id": 66966,
        "meta_element_set_no": 999,
        "meta_rev_at_epoch": 414,
        "meta_bstar": -0.030702,
        "meta_mean_motion_dot": -0.02047036,
        "meta_mean_motion_ddot": 0,
        "tle_line1": "1 66966U 25288H   25361.16668980 -.02047036  00000+0 -30702-1 0  9995",
        "tle_line2": "2 66966  42.9999  79.4620 0001524 268.2701  21.8015 15.57186152  4140"
      },
      "geometry": {
        "type": "Point",
        "coordinates": [
          -73.40102073800139,
          -24.28069908961421
        ]
      }
    },
    {
      "type": "Feature",
      "properties": {
        "norad_id": 66967,
        "name": "STARLINK-36136",
        "group": "last-30-days",
        "lat": -25.414581222430762,
        "lon": -71.70276945723792,
        "alt_km": 401.6166823041722,
        "timestamp": "2025-12-27T11:23:18.581072+00:00",
        "meta_object_name": "STARLINK-36136",
        "meta_object_id": "2025-288J",
        "meta_epoch": "2025-12-27T04:00:01.998720",
        "meta_mean_motion": 15.57187122,
        "meta_eccentricity": 0.0001369,
        "meta_inclination": 43.0001,
        "meta_ra_of_asc_node": 79.4573,
        "meta_arg_of_pericenter": 267.4071,
        "meta_mean_anomaly": 24.5795,
        "meta_ephemeris_type": 0,
        "meta_classification_type": "U",
        "meta_norad_cat_id": 66967,
        "meta_element_set_no": 999,
        "meta_rev_at_epoch": 414,
        "meta_bstar": -0.03069,
        "meta_mean_motion_dot": -0.02046321,
        "meta_mean_motion_ddot": 0,
        "tle_line1": "1 66967U 25288J   25361.16668980 -.02046321  00000+0 -30690-1 0  9998",
        "tle_line2": "2 66967  43.0001  79.4573 0001369 267.4071  24.5795 15.57187122  4145"
      },
      "geometry": {
        "type": "Point",
        "coordinates": [
          -71.70276945723792,
          -25.414581222430762
        ]
      }
    },
    {
      "type": "Feature",
      "properties": {
        "norad_id": 66968,
        "name": "STARLINK-36152",
        "group": "last-30-days",
        "lat": -26.526852722224636,
        "lon": -69.97518690368193,
        "alt_km": 401.6712879945562,
        "timestamp": "2025-12-27T11:23:18.581082+00:00",
        "meta_object_name": "STARLINK-36152",
        "meta_object_id": "2025-288K",
        "meta_epoch": "2025-12-27T04:00:01.998720",
        "meta_mean_motion": 15.57181702,
        "meta_eccentricity": 0.0001431,
        "meta_inclination": 43,
        "meta_ra_of_asc_node": 79.4521,
        "meta_arg_of_pericenter": 269.1357,
        "meta_mean_anomaly": 24.7705,
        "meta_ephemeris_type": 0,
        "meta_classification_type": "U",
        "meta_norad_cat_id": 66968,
        "meta_element_set_no": 999,
        "meta_rev_at_epoch": 414,
        "meta_bstar": -0.03058,
        "meta_mean_motion_dot": -0.02039439,
        "meta_mean_motion_ddot": 0,
        "tle_line1": "1 66968U 25288K   25361.16668980 -.02039439  00000+0 -30580-1 0  9999",
        "tle_line2": "2 66968  43.0000  79.4521 0001431 269.1357  24.7705 15.57181702  4145"
      },
      "geometry": {
        "type": "Point",
        "coordinates": [
          -69.97518690368193,
          -26.526852722224636
        ]
      }
    }
  ]
}